ONEWEB-0674             
1 55833U 23029AP  24267.47905517  .00002799  00000+0  75108-2 0  9998
2 55833  87.8971  55.3520 0001162 104.7926 255.3332 13.14519870 77102
ONEWEB-0675             
1 55834U 23029AQ  24267.19847151  .00000117  00000+0  26000-3 0  9997
2 55834  87.9111  70.6813 0002090  87.3396 272.7976 13.19726800 76275
ONEWEB-0720             
1 55835U 23029AR  24267.49382688  .00000167  00000+0  38539-3 0  9995
2 55835  87.9110  70.6218 0001940 107.5929 252.5415 13.19723110 76213
ONEWEB-0537             
1 56046U 23043A   24266.51990687  .00000095  00000+0  21561-3 0  9999
2 56046  87.9165 354.7630 0001994  93.2685 266.8674 13.16593529 76627
ONEWEB-0538             
1 56047U 23043B   24267.50154394  .00000043  00000+0  79835-4 0  9998
2 56047  87.9167 354.5891 0002219 101.7415 258.3964 13.16594544 76765
ONEWEB-0546             
1 56048U 23043C   24266.65291192 -.00000090  00000+0 -26915-3 0  9996
2 56048  87.9175 354.7233 0002031  77.4833 282.6525 13.16592866 75736
ONEWEB-0547             
1 56049U 23043D   24266.57886017  .00000132  00000+0  28753-3 0  9991
2 56049  87.9364   9.9467 0002117 101.5014 258.6358 13.21828611 75564
ONEWEB-0548             
1 56050U 23043E   24267.51420642  .00000047  00000+0  88789-4 0  9997
2 56050  87.9168 354.5948 0001374 111.7781 248.3496 13.16594496 76755
